; LightBurn 1.3.01
; Marlin device profile, absolute coords
; Bounds: X118.55 Y41.16 to X196.62 Y254.2

;USER START SCRIPT
M203 X100
G0 X0 Y0 F8000
G28 X Y
G0 X100 Y100 F8000
G92 A843
M203 X10
;USER START SCRIPT

G21
G90
; Cut @ 100 mm/sec, 35% power
M9
M05
G0 X126.721 A594.632 F0
; Layer C03
G1 X127.764 A581.618 F6000 I S89.3
G1 X128.857 A569.211
G1 X130 A557.432
G1 X131.189 A546.307
G1 X132.424 A535.858
G1 X133.702 A526.109
G1 X135.02 A517.083
G1 X136.378 A508.804
G1 X137.773 A501.296
G1 X139.203 A494.582
G1 X140.667 A488.686
G1 X142.161 A483.631
G1 X143.685 A479.44
G1 X145.236 A476.138
G1 X146.813 A473.748
G1 X148.412 A472.292
G1 X150.033 A471.796
G1 X165.033
G1 X166.654 A472.193
G1 X168.254 A473.631
G1 X169.831 A476.004
G1 X171.382 A479.29
G1 X172.906 A483.464
G1 X174.401 A488.503
G1 X175.865 A494.383
G1 X177.296 A501.082
G1 X178.691 A508.574
G1 X180.05 A516.838
G1 X181.369 A525.85
G1 X182.648 A535.585
G1 X183.883 A546.021
G1 X185.074 A557.133
G1 X186.217 A568.899
G1 X187.311 A581.295
G1 X188.355 A594.297
G1 X189.346 A607.881
G1 X190.281 A622.025
G1 X191.16 A636.705
G1 X191.98 A651.897
G1 X192.739 A667.578
G1 X193.435 A683.723
G1 X194.067 A700.311
G1 X194.631 A717.316
G1 X195.127 A734.717
G1 X195.552 A752.488
G1 X195.905 A770.607
G1 X196.183 A789.049
G1 X196.384 A807.792
G1 X196.506 A826.813
G1 X196.548 A846.086
G1 X196.507 A865.361
G1 X196.387 A884.382
G1 X196.187 A903.128
G1 X195.911 A921.573
G1 X195.56 A939.696
G1 X195.136 A957.472
G1 X194.641 A974.877
G1 X194.078 A991.889
G1 X193.448 A1008.483
G1 X192.753 A1024.636
G1 X191.995 A1040.325
G1 X191.176 A1055.526
G1 X190.298 A1070.215
G1 X189.364 A1084.37
G1 X188.374 A1097.965
G1 X187.332 A1110.978
G1 X186.238 A1123.386
G1 X185.096 A1135.164
G1 X183.906 A1146.29
G1 X182.672 A1156.739
G1 X181.394 A1166.488
G1 X180.075 A1175.514
G1 X178.717 A1183.792
G1 X177.322 A1191.3
G1 X175.892 A1198.014
G1 X174.429 A1203.911
G1 X172.934 A1208.966
G1 X171.41 A1213.157
G1 X169.859 A1216.459
G1 X168.283 A1218.849
G1 X166.683 A1220.304
G1 X165.062 A1220.8
G1 X150.062
G1 X148.441 A1220.404
G1 X146.841 A1218.966
G1 X145.265 A1216.593
G1 X143.713 A1213.307
G1 X142.189 A1209.133
G1 X140.694 A1204.094
G1 X139.23 A1198.214
G1 X137.8 A1191.515
G1 X136.404 A1184.022
G1 X135.046 A1175.758
G1 X133.726 A1166.747
G1 X132.448 A1157.012
G1 X131.212 A1146.576
G1 X130.022 A1135.464
G1 X128.878 A1123.698
G1 X127.784 A1111.302
G1 X126.741 A1098.3
G1 X125.75 A1084.715
G1 X124.814 A1070.571
G1 X123.935 A1055.892
G1 X123.116 A1040.7
G1 X122.356 A1025.019
G1 X121.66 A1008.873
G1 X121.029 A992.286
G1 X120.464 A975.28
G1 X119.968 A957.88
G1 X119.543 A940.109
G1 X119.191 A921.99
G1 X118.913 A903.548
G1 X118.712 A884.804
G1 X118.589 A865.784
G1 X118.548 A846.51
G1 X118.588 A827.236
G1 X118.709 A808.215
G1 X118.908 A789.469
G1 X119.185 A771.023
G1 X119.536 A752.901
G1 X119.96 A735.125
G1 X120.454 A717.72
G1 X121.018 A700.708
G1 X121.648 A684.114
G1 X122.343 A667.96
G1 X123.101 A652.271
G1 X123.919 A637.071
G1 X124.797 A622.381
G1 X125.732 A608.227
G1 X126.721 A594.632
M05
G0 X141.849 A846.101 F0
G1 X196.548 F6000 I S89.3
; Cut @ 200 mm/sec, 0% power
M9
M05
G0 X196.357 A873.711 F0
; Layer C02
G1 X193.943 A2372.106 F12000
; Cut @ 100 mm/sec, 35% power
M9
M05
G0 X193.503 A2375.771 F0
; Layer C01
G1 X192.807 A2359.625 F6000 I S89.3
G1 X192.048 A2343.945
G1 X191.228 A2328.753
G1 X190.349 A2314.073
G1 X189.414 A2299.929
G1 X188.423 A2286.344
G1 X187.38 A2273.342
G1 X186.285 A2260.947
G1 X185.142 A2249.181
G1 X183.951 A2238.068
G1 X182.716 A2227.632
G1 X181.438 A2217.897
G1 X180.118 A2208.886
G1 X178.759 A2200.622
G1 X177.364 A2193.129
G1 X175.933 A2186.431
G1 X174.469 A2180.55
G1 X172.974 A2175.511
G1 X171.45 A2171.337
G1 X169.899 A2168.052
G1 X168.322 A2165.678
G1 X166.723 A2164.24
G1 X165.102 A2163.762
G1 X150.102
G1 X148.481 A2164.34
G1 X146.881 A2165.795
G1 X145.305 A2168.185
G1 X143.753 A2171.488
G1 X142.23 A2175.678
G1 X140.735 A2180.733
G1 X139.272 A2186.63
G1 X137.841 A2193.344
G1 X136.446 A2200.852
G1 X135.088 A2209.131
G1 X133.77 A2218.156
G1 X132.492 A2227.906
G1 X131.257 A2238.354
G1 X130.068 A2249.48
G1 X128.925 A2261.258
G1 X127.832 A2273.666
G1 X126.789 A2286.679
G1 X125.8 A2300.275
G1 X124.865 A2314.429
G1 X123.988 A2329.118
G1 X123.169 A2344.319
G1 X122.411 A2360.008
G1 X121.716 A2376.161
G1 X121.086 A2392.755
G1 X120.522 A2409.767
G1 X120.028 A2427.173
G1 X119.604 A2444.948
G1 X119.253 A2463.071
G1 X118.977 A2481.517
G1 X118.777 A2500.262
G1 X118.656 A2519.284
G1 X118.616 A2538.558
G1 X118.658 A2557.832
G1 X118.78 A2576.852
G1 X118.981 A2595.595
G1 X119.259 A2614.038
G1 X119.611 A2632.156
G1 X120.036 A2649.928
G1 X120.532 A2667.328
G1 X121.097 A2684.333
G1 X121.728 A2700.921
G1 X122.425 A2717.066
G1 X123.184 A2732.747
G1 X124.004 A2747.939
G1 X124.882 A2762.619
G1 X125.818 A2776.763
G1 X126.809 A2790.347
G1 X127.852 A2803.35
G1 X128.947 A2815.745
G1 X130.09 A2827.511
G1 X131.28 A2838.624
G1 X132.516 A2849.059
G1 X133.794 A2858.795
G1 X135.114 A2867.806
G1 X136.472 A2876.07
G1 X137.868 A2883.563
G1 X139.299 A2890.261
G1 X140.763 A2896.142
G1 X142.258 A2901.181
G1 X143.782 A2905.355
G1 X145.333 A2908.64
G1 X146.91 A2911.013
G1 X148.509 A2912.451
G1 X150.13 A2912.929
G1 X165.13
G1 X166.751 A2912.352
G1 X168.351 A2910.896
G1 X169.927 A2908.506
G1 X171.478 A2905.204
G1 X173.002 A2901.014
G1 X174.497 A2895.958
G1 X175.96 A2890.062
G1 X177.39 A2883.348
G1 X178.785 A2875.84
G1 X180.143 A2867.561
G1 X181.462 A2858.535
G1 X182.74 A2848.786
G1 X183.974 A2838.337
G1 X185.164 A2827.212
G1 X186.306 A2815.433
G1 X187.4 A2803.026
G1 X188.442 A2790.013
G1 X189.432 A2776.417
G1 X190.367 A2762.263
G1 X191.244 A2747.573
G1 X192.063 A2732.373
G1 X192.821 A2716.684
G1 X193.516 A2700.531
G1 X194.146 A2683.936
G1 X194.709 A2666.925
G1 X195.204 A2649.519
G1 X195.628 A2631.743
G1 X195.979 A2613.621
G1 X196.255 A2595.175
G1 X196.455 A2576.43
G1 X196.576 A2557.408
G1 X196.616 A2538.134
G1 X196.574 A2518.86
G1 X196.452 A2499.84
G1 X196.251 A2481.097
G1 X195.973 A2462.654
G1 X195.621 A2444.535
G1 X195.195 A2426.764
G1 X194.7 A2409.364
G1 X194.135 A2392.358
G1 X193.503 A2375.771
M9
M05
G90

;USER END SCRIPT
M203 X300
G0 X0 Y0 F8000
M18
;USER END SCRIPT
